NORAD_CAT_ID,OBJECT_NAME,OBJECT_TYPE,EPOCH,MEAN_MOTION,ECCENTRICITY,INCLINATION,RA_OF_ASC_NODE,ARG_OF_PERICENTER,MEAN_ANOMALY,BSTAR,MEAN_MOTION_DOT,MEAN_MOTION_DDOT,TLE_LINE0,TLE_LINE1,TLE_LINE2,SEMIMAJOR_AXIS,PERIOD,APOGEE,PERIGEE,DECAYED
53602.0,STARLINK-4648,PAYLOAD,2023-03-12 11:23:43,15.0884574,0.0001543,53.2171,106.9691,95.296,264.8208,0.00027443,4.083e-05,0.0,0 STARLINK-4648,1 53602U 22104Q   23071.47480910  .00004083  00000-0  27443-3 0  9999,2 53602  53.2171 106.9691 0001543  95.2960 264.8208 15.08845740 29950,6917.863,95.437,540.795,538.66,0.0
53602.0,STARLINK-4648,PAYLOAD,2023-03-13 03:17:35,15.08838869,0.0001537,53.217,103.9946,92.9045,267.2123,0.0003398,5.124e-05,0.0,0 STARLINK-4648,1 53602U 22104Q   23072.13721404  .00005124  00000-0  33980-3 0  9999,2 53602  53.2170 103.9946 0001537  92.9045 267.2123 15.08838869 30050,6917.884,95.438,540.812,538.686,0.0
53602.0,STARLINK-4648,PAYLOAD,2023-03-13 11:14:30,15.08848065,0.0001548,53.2161,102.5069,96.1987,263.9181,0.00034958,5.281e-05,0.0,0 STARLINK-4648,1 53602U 22104Q   23072.46841028  .00005281  00000-0  34958-3 0  9990,2 53602  53.2161 102.5069 0001548  96.1987 263.9181 15.08848065 30791,6917.856,95.437,540.792,538.65,0.0
53602.0,STARLINK-4648,PAYLOAD,2023-03-14 11:05:17,15.08853969,0.0001565,53.2162,98.0465,95.0668,265.0503,0.00035554,5.377e-05,0.0,0 STARLINK-4648,1 53602U 22104Q   23073.46200925  .00005377  00000-0  35554-3 0  9995,2 53602  53.2162  98.0465 0001565  95.0668 265.0503 15.08853969 30255,6917.838,95.437,540.785,538.62,0.0
53602.0,STARLINK-4648,PAYLOAD,2023-03-15 04:34:31,15.08851804,0.0001593,53.2161,94.7746,108.9746,251.1418,0.00030408,4.556e-05,0.0,0 STARLINK-4648,1 53602U 22104Q   23074.19064520  .00004556  00000-0  30408-3 0  9996,2 53602  53.2161  94.7746 0001593 108.9746 251.1418 15.08851804 30360,6917.844,95.437,540.811,538.607,0.0
53602.0,STARLINK-4648,PAYLOAD,2023-03-15 10:56:03,15.08859671,0.0001337,53.2161,93.5853,96.0811,264.0334,0.00035172,5.317e-05,0.0,0 STARLINK-4648,1 53602U 22104Q   23074.45559894  .00005317  00000-0  35172-3 0  9997,2 53602  53.2161  93.5853 0001337  96.0811 264.0334 15.08859671 31093,6917.82,95.436,540.61,538.76,0.0
53602.0,STARLINK-4648,PAYLOAD,2023-03-16 04:25:18,15.08842764,0.0002033,53.2167,90.3103,130.4928,229.6241,-6.1228e-05,-1.263e-05,0.0,0 STARLINK-4648,1 53602U 22104Q   23075.18424194 -.00001263  00000-0 -61228-4 0  9992,2 53602  53.2167  90.3103 0002033 130.4928 229.6241 15.08842764 30513,6917.872,95.437,541.143,538.331,0.0
53602.0,STARLINK-4648,PAYLOAD,2023-03-16 10:46:51,15.08842372,0.0001319,53.2172,89.1249,106.8567,253.257,-3.5639e-05,-8.55e-06,0.0,0 STARLINK-4648,1 53602U 22104Q   23075.44920454 -.00000855  00000-0 -35639-4 0  9994,2 53602  53.2172  89.1249 0001319 106.8567 253.2570 15.08842372 31242,6917.873,95.437,540.651,538.826,0.0
53602.0,STARLINK-4648,PAYLOAD,2023-03-17 04:16:06,15.08828684,0.0001423,53.2181,85.8533,109.7093,250.4053,-0.00013786,-2.481e-05,0.0,0 STARLINK-4648,1 53602U 22104Q   23076.17785378 -.00002481  00000-0 -13786-3 0  9994,2 53602  53.2181  85.8533 0001423 109.7093 250.4053 15.08828684 30663,6917.915,95.438,540.764,538.796,0.0
53602.0,STARLINK-4648,PAYLOAD,2023-03-17 10:37:39,15.08835394,0.0001229,53.2179,84.6661,84.3195,275.7937,-2.3156e-05,-6.56e-06,0.0,0 STARLINK-4648,1 53602U 22104Q   23076.44281542 -.00000656  00000-0 -23156-4 0  9993,2 53602  53.2179  84.6661 0001229  84.3195 275.7937 15.08835394 31392,6917.894,95.438,540.61,538.909,0.0
53602.0,STARLINK-4648,PAYLOAD,2023-03-17 16:59:11,15.08836218,0.0001259,53.2178,83.4774,88.6976,271.416,-5.6163e-05,-1.181e-05,0.0,0 STARLINK-4648,1 53602U 22104Q   23076.70777259 -.00001181  00000-0 -56163-4 0  9995,2 53602  53.2178  83.4774 0001259  88.6976 271.4160 15.08836218 30745,6917.892,95.438,540.628,538.886,0.0
53602.0,STARLINK-4648,PAYLOAD,2023-03-18 07:17:39,15.08848193,0.000119,53.2175,80.8013,91.4719,268.6409,0.00037956,5.759e-05,0.0,0 STARLINK-4648,1 53602U 22104Q   23077.30393235  .00005759  00000-0  37956-3 0  9991,2 53602  53.2175  80.8013 0001190  91.4719 268.6409 15.08848193 30839,6917.855,95.437,540.544,538.897,0.0
53602.0,STARLINK-4648,PAYLOAD,2023-03-18 20:00:45,15.08839533,0.0001213,53.2172,78.4233,93.4053,266.7078,0.00020013,2.899e-05,0.0,0 STARLINK-4648,1 53602U 22104Q   23077.83385590  .00002899  00000-0  20013-3 0  9992,2 53602  53.2172  78.4233 0001213  93.4053 266.7078 15.08839533 30910,6917.882,95.438,540.586,538.908,0.0
53602.0,STARLINK-4648,PAYLOAD,2023-03-18 21:36:08,15.08835506,0.0001215,53.2169,78.1259,94.3384,265.7747,0.00010539,1.39e-05,0.0,0 STARLINK-4648,1 53602U 22104Q   23077.90009746  .00001390  00000-0  10539-3 0  9993,2 53602  53.2169  78.1259 0001215  94.3384 265.7747 15.08835506 31616,6917.894,95.438,540.6,538.919,0.0
53602.0,STARLINK-4648,PAYLOAD,2023-03-19 10:19:13,15.08840256,0.0001138,53.217,75.7471,92.283,267.8292,0.00017201,2.451e-05,0.0,0 STARLINK-4648,1 53602U 22104Q   23078.43001586  .00002451  00000-0  17201-3 0  9998,2 53602  53.2170  75.7471 0001138  92.2830 267.8292 15.08840256 31698,6917.88,95.438,540.532,538.957,0.0
53602.0,STARLINK-4648,PAYLOAD,2023-03-19 16:40:46,15.08836162,0.0001159,53.2175,74.5567,95.975,264.1374,3.439e-05,2.59e-06,0.0,0 STARLINK-4648,1 53602U 22104Q   23078.69497822  .00000259  00000-0  34390-4 0  9991,2 53602  53.2175  74.5567 0001159  95.9750 264.1374 15.08836162 31041,6917.892,95.438,540.559,538.955,0.0
53602.0,STARLINK-4648,PAYLOAD,2023-03-20 08:34:37,15.08846255,0.0001093,53.2171,71.5839,97.1316,262.98,8.8421e-05,1.12e-05,0.0,0 STARLINK-4648,1 53602U 22104Q   23079.35737315  .00001120  00000-0  88421-4 0  9991,2 53602  53.2171  71.5839 0001093  97.1316 262.9800 15.08846255 31140,6917.861,95.437,540.482,538.97,0.0
53602.0,STARLINK-4648,PAYLOAD,2023-03-21 06:50:01,15.08843147,0.0001067,53.2181,67.4199,93.1065,267.0049,0.0001887,2.717e-05,0.0,0 STARLINK-4648,1 53602U 22104Q   23080.28473780  .00002717  00000-0  18870-3 0  9991,2 53602  53.2181  67.4199 0001067  93.1065 267.0049 15.08843147 31285,6917.871,95.437,540.474,538.998,0.0
53602.0,STARLINK-4648,PAYLOAD,2023-03-21 08:25:24,15.0884521,0.0001075,53.2177,67.1217,89.7352,270.3763,0.00023324,3.427e-05,0.0,0 STARLINK-4648,1 53602U 22104Q   23080.35097666  .00003427  00000-0  23324-3 0  9993,2 53602  53.2177  67.1217 0001075  89.7352 270.3763 15.08845210 31987,6917.864,95.437,540.473,538.986,0.0
53602.0,STARLINK-4648,PAYLOAD,2023-03-22 05:05:25,15.088416,0.0001381,53.2184,63.2553,99.9644,260.1504,0.00013312,1.831e-05,0.0,0 STARLINK-4648,1 53602U 22104Q   23081.21210026  .00001831  00000-0  13312-3 0  9999,2 53602  53.2184  63.2553 0001381  99.9644 260.1504 15.08841600 31420,6917.875,95.437,540.696,538.785,0.0
53602.0,STARLINK-4648,PAYLOAD,2023-03-22 16:13:07,15.08845023,0.0001273,53.2185,61.1743,103.3952,256.7182,0.00023709,3.488e-05,0.0,0 STARLINK-4648,1 53602U 22104Q   23081.67578022  .00003488  00000-0  23709-3 0  9993,2 53602  53.2185  61.1743 0001273 103.3952 256.7182 15.08845023 32181,6917.865,95.437,540.611,538.849,0.0
53602.0,STARLINK-4648,PAYLOAD,2023-03-23 04:56:12,15.08853176,0.0001314,53.2186,58.7953,100.2523,259.8617,0.00034195,5.16e-05,0.0,0 STARLINK-4648,1 53602U 22104Q   23082.20569661  .00005160  00000-0  34195-3 0  9992,2 53602  53.2186  58.7953 0001314 100.2523 259.8617 15.08853176 32267,6917.84,95.437,540.614,538.796,0.0
53602.0,STARLINK-4648,PAYLOAD,2023-03-24 04:46:58,15.08883527,0.0001224,53.2183,54.3374,86.5764,273.5368,0.0012339,0.00019427,0.0,0 STARLINK-4648,1 53602U 22104Q   23083.19929320  .00019427  00000-0  12339-2 0  9999,2 53602  53.2183  54.3374 0001224  86.5764 273.5368 15.08883527 31725,6917.747,95.435,540.459,538.766,0.0
53602.0,STARLINK-4648,PAYLOAD,2023-03-25 04:37:45,15.08852862,9.57e-05,53.2193,49.8755,95.018,265.0921,0.00041055,6.254e-05,0.0,0 STARLINK-4648,1 53602U 22104Q   23084.19289217  .00006254  00000-0  41055-3 0  9996,2 53602  53.2193  49.8755 0000957  95.0180 265.0921 15.08852862 31872,6917.841,95.437,540.368,539.044,0.0
53602.0,STARLINK-4648,PAYLOAD,2023-03-26 04:28:33,15.08828846,9.56e-05,53.219,45.417,92.0173,268.0928,-0.00017116,-3.01e-05,0.0,0 STARLINK-4648,1 53602U 22104Q   23085.18650113 -.00003010  00000-0 -17116-3 0  9993,2 53602  53.2190  45.4170 0000956  92.0173 268.0928 15.08828846 32023,6917.914,95.438,540.441,539.118,0.0
53602.0,STARLINK-4648,PAYLOAD,2023-03-27 04:19:21,15.08840048,8.08e-05,53.2185,40.9563,108.622,251.486,0.00042921,6.55e-05,0.0,0 STARLINK-4648,1 53602U 22104Q   23086.18010467  .00006550  00000-0  42921-3 0  9998,2 53602  53.2185  40.9563 0000808 108.6220 251.4860 15.08840048 32171,6917.88,95.438,540.304,539.186,0.0
53602.0,STARLINK-4648,PAYLOAD,2023-03-27 05:54:44,15.08848047,9.44e-05,53.2183,40.6592,133.1909,226.9162,0.00059296,9.164e-05,0.0,0 STARLINK-4648,1 53602U 22104Q   23086.24634277  .00009164  00000-0  59296-3 0  9993,2 53602  53.2183  40.6592 0000944 133.1909 226.9162 15.08848047 32872,6917.856,95.437,540.374,539.068,0.0
53602.0,STARLINK-4648,PAYLOAD,2023-03-28 05:45:30,15.08863185,0.0001111,53.2187,36.1997,100.7005,259.4112,0.00071894,0.0001118,0.0,0 STARLINK-4648,1 53602U 22104Q   23087.23993894  .00011180  00000-0  71894-3 0  9995,2 53602  53.2187  36.1997 0001111 100.7005 259.4112 15.08863185 32336,6917.81,95.436,540.443,538.906,0.0
53602.0,STARLINK-4648,PAYLOAD,2023-03-28 20:03:59,15.08844752,0.0001535,53.218,33.5249,78.4898,281.6267,0.00043127,6.583e-05,0.0,0 STARLINK-4648,1 53602U 22104Q   23087.83610215  .00006583  00000-0  43127-3 0  9993,2 53602  53.2180  33.5249 0001535  78.4898 281.6267 15.08844752 32428,6917.866,95.437,540.793,538.669,0.0
53602.0,STARLINK-4648,PAYLOAD,2023-03-29 05:36:17,15.08860832,0.0001148,53.2184,31.7369,91.2772,268.8351,0.00083019,0.00012957,0.0,0 STARLINK-4648,1 53602U 22104Q   23088.23353737  .00012957  00000-0  83019-3 0  9997,2 53602  53.2184  31.7369 0001148  91.2772 268.8351 15.08860832 33170,6917.817,95.436,540.476,538.888,0.0
